[{"OBJECT_NAME":"STARLINK-32170","OBJECT_ID":"2024-150J","EPOCH":"2026-03-09T22:16:59.822688","MEAN_MOTION":15.30191066,"ECCENTRICITY":0.00010025,"INCLINATION":53.1601,"RA_OF_ASC_NODE":306.222,"ARG_OF_PERICENTER":83.1078,"MEAN_ANOMALY":277.0037,"EPHEMERIS_TYPE":0,"CLASSIFICATION_TYPE":"U","NORAD_CAT_ID":60591,"ELEMENT_SET_NO":999,"REV_AT_EPOCH":8799,"BSTAR":0.00010696673,"MEAN_MOTION_DOT":2.809e-5,"MEAN_MOTION_DDOT":0},{"OBJECT_NAME":"JINJUSAT-1B","OBJECT_ID":"2025-052A","EPOCH":"2026-03-09T15:55:38.242848","MEAN_MOTION":15.30194857,"ECCENTRICITY":0.00055504,"INCLINATION":97.4113,"RA_OF_ASC_NODE":325.4613,"ARG_OF_PERICENTER":82.193,"MEAN_ANOMALY":277.9941,"EPHEMERIS_TYPE":0,"CLASSIFICATION_TYPE":"U","NORAD_CAT_ID":63210,"ELEMENT_SET_NO":999,"REV_AT_EPOCH":5486,"BSTAR":0.00068430401,"MEAN_MOTION_DOT":0.00019955,"MEAN_MOTION_DDOT":0}]
